[{"OBJECT_NAME":"QIANFAN-19","OBJECT_ID":"2024-185A","EPOCH":"2026-03-09T23:01:49.129824","MEAN_MOTION":14.14392209,"ECCENTRICITY":0.00082129,"INCLINATION":88.9763,"RA_OF_ASC_NODE":67.9253,"ARG_OF_PERICENTER":39.7684,"MEAN_ANOMALY":320.4104,"EPHEMERIS_TYPE":0,"CLASSIFICATION_TYPE":"U","NORAD_CAT_ID":61552,"ELEMENT_SET_NO":999,"REV_AT_EPOCH":8199,"BSTAR":0.00030187594,"MEAN_MOTION_DOT":5.92e-6,"MEAN_MOTION_DDOT":0},{"OBJECT_NAME":"CZ-6A DEB","OBJECT_ID":"2022-151NX","EPOCH":"2026-03-09T22:44:42.971712","MEAN_MOTION":14.08844179,"ECCENTRICITY":0.00577947,"INCLINATION":98.8442,"RA_OF_ASC_NODE":64.4169,"ARG_OF_PERICENTER":261.2531,"MEAN_ANOMALY":98.209,"EPHEMERIS_TYPE":0,"CLASSIFICATION_TYPE":"U","NORAD_CAT_ID":54621,"ELEMENT_SET_NO":999,"REV_AT_EPOCH":16948,"BSTAR":0.00053898462,"MEAN_MOTION_DOT":9.01e-6,"MEAN_MOTION_DDOT":0}]
